API VERSION: 1.2
API SOURCE: NASA/JPL Horizons API



*******************************************************************************
Ephemeris / API_USER Mon Dec 16 00:27:09 2024 Pasadena, USA      / Horizons
*******************************************************************************
Target body name: Mars Barycenter (4)             {source: DE441}
Center body name: Solar System Barycenter (0)     {source: DE441}
Center-site name: BODY CENTER
*******************************************************************************
Start time      : A.D. 2033-Dec-31 00:00:00.0000 TDB
Stop  time      : A.D. 2045-Dec-31 00:00:00.0000 TDB
Step-size       : 7200 minutes
*******************************************************************************
Center geodetic : 0.0, 0.0, 0.0                   {E-lon(deg),Lat(deg),Alt(km)}
Center cylindric: 0.0, 0.0, 0.0                   {E-lon(deg),Dxy(km),Dz(km)}
Center radii    : (undefined)
Output units    : KM-S
Calendar mode   : Mixed Julian/Gregorian
Output type     : GEOMETRIC cartesian states
Output format   : 2 (position and velocity)
Reference frame : Ecliptic of J2000.0
*******************************************************************************
            JDTDB,            Calendar Date (TDB),                      X,                      Y,                      Z,                     VX,                     VY,                     VZ,
**************************************************************************************************************************************************************************************************
$$SOE
2467187.500000000, A.D. 2042-Oct-30 00:00:00.0000, -2.801375004398930E+07, -2.175394386906940E+08, -3.898356783342794E+06,  2.492332373553007E+01, -1.049549868469493E+00, -6.324532633572596E-01,
2467192.500000000, A.D. 2042-Nov-04 00:00:00.0000, -1.721786902082837E+07, -2.177384014164195E+08, -4.166952136735514E+06,  2.504813941756454E+01,  1.311097653330736E-01, -6.107556789549869E-01,
2467197.500000000, A.D. 2042-Nov-09 00:00:00.0000, -6.380462678199743E+06, -2.174240404482606E+08, -4.425801915715069E+06,  2.511528498657338E+01,  1.326481271291210E+00, -5.873376715441702E-01,
2467202.500000000, A.D. 2042-Nov-14 00:00:00.0000,  4.473194712170178E+06, -2.165906194440364E+08, -4.674167046444595E+06,  2.512311247236465E+01,  2.533667169407643E+00, -5.622196425763442E-01,
2467207.500000000, A.D. 2042-Nov-19 00:00:00.0000,  1.531714734804580E+07, -2.152336935291055E+08, -4.911318845763654E+06,  2.507011802149541E+01,  3.749586595574847E+00, -5.354293648446559E-01,
2467212.500000000, A.D. 2042-Nov-24 00:00:00.0000,  2.612482461272517E+07, -2.133501874824294E+08, -5.136542292850092E+06,  2.495496261409314E+01,  4.970980484669781E+00, -5.070023802414101E-01,
2467217.500000000, A.D. 2042-Nov-29 00:00:00.0000,  3.686911682566790E+07, -2.109384711682545E+08, -5.349139464082897E+06,  2.477649312993139E+01,  6.194419168870072E+00, -4.769823559970905E-01,
2467222.500000000, A.D. 2042-Dec-04 00:00:00.0000,  4.752246011906340E+07, -2.079984311340462E+08, -5.548433111095428E+06,  2.453376348191827E+01,  7.416312551747481E+00, -4.454213896465249E-01,
2467227.500000000, A.D. 2042-Dec-09 00:00:00.0000,  5.805693040141492E+07, -2.045315372344663E+08, -5.733770357542902E+06,  2.422605549483795E+01,  8.632922978234875E+00, -4.123802517304340E-01,
2467232.500000000, A.D. 2042-Dec-14 00:00:00.0000,  6.844434622092822E+07, -2.005409030983346E+08, -5.904526485164315E+06,  2.385289916575539E+01,  9.840380879093722E+00, -3.779285545950639E-01,
2467237.500000000, A.D. 2042-Dec-19 00:00:00.0000,  7.865638017711249E+07, -1.960313392306025E+08, -6.060108774854362E+06,  2.341409191088203E+01,  1.103470322540771E+01, -3.421448366161628E-01,
2467242.500000000, A.D. 2042-Dec-24 00:00:00.0000,  8.866467835372961E+07, -1.910093975373583E+08, -6.199960364163831E+06,  2.290971638430971E+01,  1.221181477373758E+01, -3.051165525840762E-01,
2467247.500000000, A.D. 2042-Dec-29 00:00:00.0000,  9.844098706433432E+07, -1.854834060844038E+08, -6.323564078877166E+06,  2.234015644216194E+01,  1.336757201559245E+01, -2.669399620134119E-01,
2467252.500000000, A.D. 2043-Jan-03 00:00:00.0000,  1.079572860162101E+08, -1.794634929526456E+08, -6.430446192990534E+06,  2.170611082171832E+01,  1.449778967335742E+01, -2.277199083010979E-01,
2467257.500000000, A.D. 2043-Jan-08 00:00:00.0000,  1.171859268137933E+08, -1.729615981373611E+08, -6.520180068708725E+06,  2.100860411332053E+01,  1.559826951219770E+01, -1.875694833768788E-01,
2467262.500000000, A.D. 2043-Jan-13 00:00:00.0000,  1.260997755449997E+08, -1.659914725542257E+08, -6.592389626210727E+06,  2.024899462737774E+01,  1.666483116145532E+01, -1.466095745820741E-01,
2467267.500000000, A.D. 2043-Jan-18 00:00:00.0000,  1.346723580300024E+08, -1.585686633641863E+08, -6.646752592003830E+06,  1.942897879751373E+01,  1.769334456188665E+01, -1.049682927760012E-01,
2467272.500000000, A.D. 2043-Jan-23 00:00:00.0000,  1.428780061673630E+08, -1.507104850102395E+08, -6.683003474810399E+06,  1.855059181123118E+01,  1.867976358658571E+01, -6.278028333213470E-02,
2467277.500000000, A.D. 2043-Jan-28 00:00:00.0000,  1.506920036925100E+08, -1.424359755672978E+08, -6.700936219299614E+06,  1.761620422418920E+01,  1.962016032564940E+01, -2.018592472552161E-02,
2467282.500000000, A.D. 2043-Feb-02 00:00:00.0000,  1.580907295748343E+08, -1.337658382375501E+08, -6.700406490672663E+06,  1.662851439338695E+01,  2.051075947572975E+01,  2.266957752360099E-02,
2467287.500000000, A.D. 2043-Feb-07 00:00:00.0000,  1.650517972276826E+08, -1.247223680735927E+08, -6.681333547105044E+06,  1.559053665480448E+01,  2.134797223894316E+01,  6.563719083749309E-02,
2467292.500000000, A.D. 2043-Feb-12 00:00:00.0000,  1.715541876942942E+08, -1.153293642738994E+08, -6.643701662287340E+06,  1.450558526900688E+01,  2.212842911529865E+01,  1.085651360020119E-01,
2467297.500000000, A.D. 2043-Feb-17 00:00:00.0000,  1.775783750049593E+08, -1.056120286623510E+08, -6.587561066692770E+06,  1.337725426087398E+01,  2.284901097085642E+01,  1.513000319991189E-01,
2467302.500000000, A.D. 2043-Feb-22 00:00:00.0000,  1.831064419776036E+08, -9.559685122735432E+07, -6.513028383599527E+06,  1.220939338335448E+01,  2.350687778130822E+01,  1.936880870941202E-01,
2467307.500000000, A.D. 2043-Feb-27 00:00:00.0000,  1.881221848552860E+08, -8.531148384815806E+07, -6.420286544113394E+06,  1.100608053598167E+01,  2.409949448742003E+01,  2.355763163743028E-01,
2467312.500000000, A.D. 2043-Mar-04 00:00:00.0000,  1.926112053375496E+08, -7.478460356819731E+07, -6.309584174253210E+06,  9.771591062456441E+00,  2.462465345364819E+01,  2.768137648010160E-01,
2467317.500000000, A.D. 2043-Mar-09 00:00:00.0000,  1.965609887637239E+08, -6.404576698023094E+07, -6.181234456388276E+06,  8.510364431432048E+00,  2.508049309254970E+01,  3.172527140326551E-01,
2467322.500000000, A.D. 2043-Mar-14 00:00:00.0000,  1.999609674378366E+08, -5.312525745841923E+07, -6.035613476831555E+06,  7.226968864992704E+00,  2.546551230701182E+01,  3.567498508340652E-01,
2467327.500000000, A.D. 2043-Mar-19 00:00:00.0000,  2.028025683391260E+08, -4.205392709967791E+07, -5.873158080779977E+06,  5.926064527798555E+00,  2.577858051214556E+01,  3.951673763024246E-01,
2467332.500000000, A.D. 2043-Mar-24 00:00:00.0000,  2.050792447383943E+08, -3.086303531523088E+07, -5.694363263939658E+06,  4.612365942838858E+00,  2.601894310787431E+01,  4.323740391176223E-01,
2467337.500000000, A.D. 2043-Mar-29 00:00:00.0000,  2.067864915352758E+08, -1.958408605006273E+07, -5.499779136935752E+06,  3.290604322236138E+00,  2.618622235860780E+01,  4.682460774114716E-01,
2467342.500000000, A.D. 2043-Apr-03 00:00:00.0000,  2.079218444216616E+08, -8.248665605862519E+06, -5.290007505570719E+06,  1.965490460893713E+00,  2.628041374042346E+01,  5.026680527407414E-01,
2467347.500000000, A.D. 2043-Apr-08 00:00:00.0000,  2.084848632455294E+08,  3.111717010469808E+06, -5.065698116598439E+06,  6.416787941126648E-01,  2.630187794218629E+01,  5.355335629588964E-01,
2467352.500000000, A.D. 2043-Apr-13 00:00:00.0000,  2.084771002022131E+08,  1.446578539450455E+07, -4.827544623121744E+06, -6.762668118179471E-01,  2.625132880869775E+01,  5.667458264814744E-01,
2467357.500000000, A.D. 2043-Apr-18 00:00:00.0000,  2.079020537161118E+08,  2.578264503066694E+07, -4.576280326148439E+06, -1.983905017401197E+00,  2.612981758692192E+01,  5.962181338636512E-01,
2467362.500000000, A.D. 2043-Apr-23 00:00:00.0000,  2.067651090842394E+08,  3.703192504979512E+07, -4.312673750050154E+06, -3.276946273454386E+00,  2.593871389953349E+01,  6.238741651471820E-01,
2467367.500000000, A.D. 2043-Apr-28 00:00:00.0000,  2.050734671251692E+08,  4.818391114539301E+07, -4.037524109746626E+06, -4.551279036790816E+00,  2.567968392240424E+01,  6.496481742526310E-01,
2467372.500000000, A.D. 2043-May-03 00:00:00.0000,  2.028360622100925E+08,  5.920966855042659E+07, -3.751656726236179E+06, -5.802992675123388E+00,  2.535466627856304E+01,  6.734850446705778E-01,
2467377.500000000, A.D. 2043-May-08 00:00:00.0000,  2.000634711468651E+08,  7.008115420241754E+07, -3.455918444660556E+06, -7.028396887911057E+00,  2.496584617902410E+01,  6.953402233956005E-01,
2467382.500000000, A.D. 2043-May-13 00:00:00.0000,  1.967678144438560E+08,  8.077131745447415E+07, -3.151173105592243E+06, -8.224037556857962E+00,  2.451562834161481E+01,  7.151795422809997E-01,
2467387.500000000, A.D. 2043-May-18 00:00:00.0000,  1.929626514997632E+08,  9.125418891661996E+07, -2.838297115879960E+06, -9.386709021696038E+00,  2.400660920374861E+01,  7.329789376879496E-01,
2467392.500000000, A.D. 2043-May-23 00:00:00.0000,  1.886628712509242E+08,  1.015049572287049E+08, -2.518175160438158E+06, -1.051346285223028E+01,  2.344154891511993E+01,  7.487240803541102E-01,
2467397.500000000, A.D. 2043-May-28 00:00:00.0000,  1.838845797619773E+08,  1.115000337672667E+08, -2.191696091119342E+06, -1.160161325612279E+01,  2.282334355339536E+01,  7.624099277316549E-01,
